[{"OBJECT_NAME":"OBJECT D","OBJECT_ID":"2024-092D","EPOCH":"2026-03-09T21:12:33.501312","MEAN_MOTION":15.33078357,"ECCENTRICITY":0.00083397,"INCLINATION":97.6418,"RA_OF_ASC_NODE":198.2302,"ARG_OF_PERICENTER":141.9853,"MEAN_ANOMALY":218.1979,"EPHEMERIS_TYPE":0,"CLASSIFICATION_TYPE":"U","NORAD_CAT_ID":59776,"ELEMENT_SET_NO":999,"REV_AT_EPOCH":10051,"BSTAR":0.00076511005,"MEAN_MOTION_DOT":0.00024443,"MEAN_MOTION_DDOT":0},{"OBJECT_NAME":"STARLINK-35124","OBJECT_ID":"2025-198V","EPOCH":"2026-03-09T19:40:33.340512","MEAN_MOTION":15.30170001,"ECCENTRICITY":0.0001321,"INCLINATION":53.1587,"RA_OF_ASC_NODE":270.1344,"ARG_OF_PERICENTER":60.2802,"MEAN_ANOMALY":299.833,"EPHEMERIS_TYPE":0,"CLASSIFICATION_TYPE":"U","NORAD_CAT_ID":65511,"ELEMENT_SET_NO":999,"REV_AT_EPOCH":2863,"BSTAR":0.00014744446,"MEAN_MOTION_DOT":4.006e-5,"MEAN_MOTION_DDOT":0}]
